OBJECT_NAME,OBJECT_ID,EPOCH,MEAN_MOTION,ECCENTRICITY,INCLINATION,RA_OF_ASC_NODE,ARG_OF_PERICENTER,MEAN_ANOMALY,EPHEMERIS_TYPE,CLASSIFICATION_TYPE,NORAD_CAT_ID,ELEMENT_SET_NO,REV_AT_EPOCH,BSTAR,MEAN_MOTION_DOT,MEAN_MOTION_DDOT
COSMOS 2251 DEB,1993-036PQ,2024-07-07T20:51:51.752736,14.90285714,.0075213,74.1668,135.2886,242.5567,180.1862,0,U,34342,999,82202,.1747E-2,.17912E-3,0
COSMOS 2251 DEB,1993-036PR,2024-07-07T12:00:04.764960,14.55895112,.0027522,74.0265,14.4149,69.8377,313.0349,0,U,34343,999,81076,.15333E-2,.6744E-4,0
COSMOS 2251 DEB,1993-036PS,2024-07-07T09:40:11.695296,14.10135330,.0160063,73.9826,320.3404,259.2051,157.4710,0,U,34344,999,78701,.15522E-2,.3067E-4,0
COSMOS 2251 DEB,1993-036PU,2024-07-07T20:35:34.598976,13.96077281,.0215345,73.9975,137.2450,69.7473,322.0903,0,U,34346,999,78101,.20913E-2,.3465E-4,0
COSMOS 2251 DEB,1993-036PY,2024-07-07T06:20:41.099712,14.70615161,.0006976,74.0326,263.2534,141.8263,274.6454,0,U,34383,999,81325,.18321E-2,.11134E-3,0
COSMOS 2251 DEB,1993-036QB,2024-07-07T18:02:55.402368,14.82962595,.0009738,74.0189,297.2437,85.6484,33.8744,0,U,34386,999,81186,.40429E-2,.32986E-3,0
COSMOS 2251 DEB,1993-036QC,2024-07-07T11:09:50.053824,14.41445001,.0039549,74.0416,102.9776,328.1805,150.0213,0,U,34387,999,80634,.40715E-3,.1306E-4,0
COSMOS 2251 DEB,1993-036QD,2024-07-07T21:27:51.819264,14.43934547,.0016101,74.0426,120.1385,290.5170,131.7604,0,U,34388,999,80595,.93083E-3,.3157E-4,0
COSMOS 2251 DEB,1993-036QE,2024-07-07T08:46:01.850016,14.38890543,.002939,74.0203,138.5907,15.8289,153.4959,0,U,34389,999,80476,.57457E-3,.1752E-4,0
COSMOS 2251 DEB,1993-036QF,2024-07-07T14:30:22.360608,14.77121437,.0055077,74.0825,243.7652,7.9094,143.0864,0,U,34390,999,81454,.1556E-2,.11263E-3,0
COSMOS 2251 DEB,1993-036QM,2024-07-07T17:56:51.119232,14.56338918,.0015531,74.0376,52.1441,218.3948,214.1866,0,U,34396,999,80740,.15529E-2,.6872E-4,0
COSMOS 2251 DEB,1993-036QR,2024-07-07T07:02:58.452576,14.85104873,.0044465,73.9982,25.8870,307.9996,51.7170,0,U,34400,999,82078,.11729E-2,.10188E-3,0
COSMOS 2251 DEB,1993-036QS,2024-07-07T05:00:49.032576,14.80455353,.0042076,74.0378,243.5531,70.5986,345.5887,0,U,34401,999,81557,.19737E-2,.15325E-3,0
COSMOS 2251 DEB,1993-036RA,2024-07-07T12:11:37.082112,14.56000051,.0081958,74.0621,219.2578,70.0342,80.6056,0,U,34409,999,81571,.24055E-3,.1077E-4,0
COSMOS 2251 DEB,1993-036RB,2024-07-07T08:38:48.566112,14.80806942,.004658,73.7610,261.1298,199.3013,288.5360,0,U,34410,999,81935,.12999E-2,.10191E-3,0
COSMOS 2251 DEB,1993-036RD,2024-07-08T01:35:56.215104,14.38298224,.0212495,73.9487,221.7301,73.5417,288.8971,0,U,34412,999,80130,.12289E-2,.4838E-4,0
COSMOS 2251 DEB,1993-036RE,2024-07-08T05:24:13.281408,14.22895049,.0099175,74.0344,129.7852,330.4506,97.3786,0,U,34413,999,79716,.20791E-2,.4892E-4,0
COSMOS 2251 DEB,1993-036RM,2024-07-07T14:35:32.383680,14.66028731,.0110686,74.0341,34.2739,288.2762,136.6028,0,U,34420,999,82097,.14926E-3,.86E-5,0
COSMOS 2251 DEB,1993-036RS,2024-07-07T20:13:43.904064,14.55052576,.0027641,74.0287,331.9676,222.4923,137.4101,0,U,34425,999,81128,.14164E-2,.6114E-4,0
COSMOS 2251 DEB,1993-036RV,2024-07-07T11:05:45.252384,14.76601749,.0025636,74.0316,312.6720,140.7665,292.3389,0,U,34428,999,81119,.24808E-2,.17431E-3,0
COSMOS 2251 DEB,1993-036RW,2024-07-07T09:29:01.392864,14.77807595,.0027201,74.0024,156.4396,74.7003,82.6610,0,U,34429,999,81596,.20343E-2,.14703E-3,0
COSMOS 2251 DEB,1993-036RX,2024-07-07T16:15:12.960576,14.37066931,.0062772,74.0509,186.7953,26.7029,333.7333,0,U,34430,999,80461,.57532E-3,.1721E-4,0
COSMOS 2251 DEB,1993-036RY,2024-07-07T08:54:57.270816,14.25730277,.0072775,74.0773,40.6579,157.7121,202.7218,0,U,34431,999,79674,.67911E-3,.1633E-4,0
COSMOS 2251 DEB,1993-036RZ,2024-07-08T03:27:12.965184,14.00253435,.0189132,73.8320,301.4303,116.3109,314.3302,0,U,34432,999,78408,.12547E-2,.2141E-4,0
COSMOS 2251 DEB,1993-036SA,2024-07-07T19:37:48.094464,14.07619482,.0162137,74.0202,357.4796,252.2909,106.0474,0,U,34433,999,78624,.10255E-2,.1927E-4,0
COSMOS 2251 DEB,1993-036SB,2024-07-07T09:26:47.298336,13.80461305,.0304289,74.0639,174.5028,71.0301,76.0964,0,U,34434,999,76716,.40722E-2,.6028E-4,0
COSMOS 2251 DEB,1993-036SG,2024-07-07T19:51:37.067904,15.04063064,.0062792,74.0429,131.6470,284.0210,75.4004,0,U,34439,999,81881,.33955E-2,.49387E-3,0
COSMOS 2251 DEB,1993-036SK,2024-07-07T15:06:26.738496,14.88807923,.0043793,74.0094,40.9054,294.0782,65.5820,0,U,34442,999,82075,.15634E-2,.14898E-3,0
COSMOS 2251 DEB,1993-036SP,2024-07-07T09:08:42.398592,14.48201120,.0052388,74.0431,317.9729,226.1638,133.5187,0,U,34446,999,81114,.19421E-3,.708E-5,0
COSMOS 2251 DEB,1993-036SS,2024-07-07T15:25:56.579808,14.63291066,.0051838,74.0470,19.3736,203.3032,234.1351,0,U,34449,999,80959,.22239E-2,.11687E-3,0
COSMOS 2251 DEB,1993-036SU,2024-07-07T14:29:31.647264,14.62795162,.005382,74.0574,36.1397,203.4850,156.3859,0,U,34451,999,80900,.2169E-2,.11289E-3,0
COSMOS 2251 DEB,1993-036SV,2024-07-07T08:26:46.047840,14.92578661,.0092384,74.0405,170.8580,27.5917,94.0125,0,U,34452,999,82801,.90955E-3,.10141E-3,0
COSMOS 2251 DEB,1993-036SW,2024-07-07T10:43:42.093408,14.67923666,.0033227,74.1618,71.0709,85.4380,331.0022,0,U,34453,999,81036,.21357E-2,.12314E-3,0
COSMOS 2251 DEB,1993-036SX,2024-07-07T08:20:54.722112,14.37319776,.0036119,74.0580,160.6004,353.8629,6.2076,0,U,34454,999,80543,.3385E-3,.991E-5,0
COSMOS 2251 DEB,1993-036SZ,2024-07-07T22:57:57.637440,14.97041700,.0034478,74.0275,31.6560,177.5908,182.5451,0,U,34456,999,80960,.64685E-2,.76208E-3,0
COSMOS 2251 DEB,1993-036TA,2024-07-07T20:40:03.684000,14.88505684,.006145,73.9920,82.8835,336.5760,97.6610,0,U,34457,999,81886,.20238E-2,.19499E-3,0
COSMOS 2251 DEB,1993-036TB,2024-07-07T20:44:47.332608,14.80757990,.001206,74.0210,322.1674,112.2324,49.0797,0,U,34458,999,81162,.46008E-2,.35641E-3,0
COSMOS 2251 DEB,1993-036TC,2024-07-07T02:40:08.963040,13.99009333,.0194958,74.0799,78.1818,273.9753,83.9115,0,U,34459,999,78384,.32353E-3,.525E-5,0
COSMOS 2251 DEB,1993-036TH,2024-07-07T17:26:26.467008,14.81872597,.0036538,74.0161,65.4582,347.4528,68.7811,0,U,34464,999,82003,.15201E-2,.12152E-3,0
COSMOS 2251 DEB,1993-036TJ,2024-07-07T18:46:46.897536,14.86855873,.0056535,74.0645,318.2712,98.1506,262.6093,0,U,34465,999,81261,.48047E-2,.44396E-3,0
COSMOS 2251 DEB,1993-036TM,2024-07-07T12:09:37.560672,14.45350241,.0078233,74.0145,15.9275,286.6011,72.6566,0,U,34468,999,80895,.28012E-3,.993E-5,0
COSMOS 2251 DEB,1993-036TR,2024-07-07T03:40:37.721568,13.67526939,.0335625,74.0838,237.7264,128.3903,234.7871,0,U,34472,999,76560,.10965E-2,.1347E-4,0
COSMOS 2251 DEB,1993-036TS,2024-07-07T16:00:49.531680,14.70238679,.0021195,74.0238,16.6608,159.7154,321.1247,0,U,34473,999,81075,.34E-2,.20605E-3,0
COSMOS 2251 DEB,1993-036TT,2024-07-07T22:16:00.758784,14.00684897,.0214888,74.0795,155.3742,356.0351,63.3857,0,U,34474,999,78203,.29808E-2,.5404E-4,0
COSMOS 2251 DEB,1993-036TV,2024-07-07T09:10:04.920096,13.73488107,.0338321,74.0116,238.9875,211.5072,146.5394,0,U,34476,999,76427,.29788E-2,.4167E-4,0
COSMOS 2251 DEB,1993-036TW,2024-07-07T13:27:26.745408,14.50793006,.0082499,73.9820,342.2082,291.5915,186.1147,0,U,34477,999,81020,.68589E-3,.2792E-4,0
COSMOS 2251 DEB,1993-036TX,2024-07-07T10:37:35.664960,14.69406957,.0070659,74.0585,329.9143,324.2829,103.3273,0,U,34478,999,81255,.16116E-2,.9889E-4,0
COSMOS 2251 DEB,1993-036UA,2024-07-07T06:09:47.958048,14.29287972,.0072162,73.9818,290.3310,221.8662,165.9289,0,U,34481,999,79960,.6591E-3,.1698E-4,0
COSMOS 2251 DEB,1993-036UB,2024-07-07T07:25:11.853408,14.51482799,.0061503,74.0446,144.1292,332.5144,143.2732,0,U,34482,999,80542,.21957E-2,.8974E-4,0
COSMOS 2251 DEB,1993-036UE,2024-07-08T04:04:18.507360,13.53246934,.0388793,73.9181,329.2427,94.2286,77.7804,0,U,34544,999,75875,.75073E-3,.793E-5,0
COSMOS 2251 DEB,1993-036UG,2024-07-07T16:29:00.964608,14.41061846,.0022866,74.0331,141.5967,339.9251,86.2263,0,U,34546,999,80521,.84608E-3,.2706E-4,0
COSMOS 2251 DEB,1993-036UH,2024-07-07T12:40:54.808896,14.56642782,.0029266,74.0330,27.8321,230.2255,129.6331,0,U,34547,999,80858,.13816E-2,.6176E-4,0
COSMOS 2251 DEB,1993-036UL,2024-07-07T18:12:35.312256,14.67822248,.0090114,73.9781,319.2362,256.7642,102.3463,0,U,34550,999,79763,.61325E-2,.37389E-3,0
COSMOS 2251 DEB,1993-036UN,2024-07-07T13:21:47.982240,14.80251160,.0023701,74.0217,11.3783,162.1784,254.0765,0,U,34552,999,80795,.45462E-2,.34913E-3,0
COSMOS 2251 DEB,1993-036UP,2024-07-07T12:08:02.031648,14.48296382,.0023511,74.0298,100.8644,297.6599,117.8320,0,U,34553,999,80493,.14233E-2,.5314E-4,0
COSMOS 2251 DEB,1993-036UQ,2024-07-07T05:44:20.553792,14.36013658,.0023694,74.0373,181.6996,12.1367,1.3791,0,U,34554,999,80235,.34783E-3,.988E-5,0
COSMOS 2251 DEB,1993-036UR,2024-07-07T17:59:13.299072,14.93203536,.0013229,74.0129,295.2455,82.6147,37.3801,0,U,34555,999,81095,.51383E-2,.54173E-3,0
COSMOS 2251 DEB,1993-036US,2024-07-07T01:41:20.362848,14.57030509,.0018396,74.0256,58.3300,234.6495,292.2836,0,U,34556,999,80643,.15429E-2,.6935E-4,0
COSMOS 2251 DEB,1993-036UW,2024-07-07T03:09:51.389856,14.54850169,.002343,74.0248,69.2499,266.1307,218.4029,0,U,34560,999,80587,.13328E-2,.5718E-4,0
COSMOS 2251 DEB,1993-036UX,2024-07-07T14:05:22.645824,14.84812495,.0021131,74.0201,249.1732,88.7920,271.5680,0,U,34561,999,81203,.33028E-2,.28241E-3,0
COSMOS 2251 DEB,1993-036UZ,2024-07-07T04:34:52.178880,14.43016185,.0013998,74.0401,98.9140,316.1190,193.7899,0,U,34563,999,80634,.57289E-3,.1895E-4,0
COSMOS 2251 DEB,1993-036VA,2024-07-07T12:37:42.278592,14.38932846,.0018848,74.0333,124.9174,355.4333,122.6783,0,U,34564,999,80475,.38364E-3,.1159E-4,0
COSMOS 2251 DEB,1993-036VD,2024-07-07T23:29:16.961856,14.22995523,.0075468,74.0424,17.0135,216.5335,296.4450,0,U,34567,999,79785,.2643E-3,.587E-5,0
COSMOS 2251 DEB,1993-036VF,2024-07-07T10:59:14.147232,14.21797355,.0162833,73.9933,62.3752,10.0247,54.0016,0,U,34569,999,79522,.77291E-3,.1921E-4,0
COSMOS 2251 DEB,1993-036VG,2024-07-07T01:20:20.681088,13.97877383,.0194682,73.9606,47.7827,40.1798,107.8079,0,U,34570,999,78277,.77975E-3,.1274E-4,0
